#cP2022  3 17 18  0  0.00000000     576 d+D   IGb14 EXT AIUB
## 2201 410400.00000000   300.00000000 59655 0.7500000000000
+   75   G01G02G03G04G05G06G07G08G09G10G11G12G13G14G15G16G17
+        G18G19G20G21G22G23G24G25G26G27G28G29G31G32R01R02R03
+        R04R05R07R08R09R12R13R14R15R17R18R19R20R21R22R24E01
+        E02E03E04E05E07E08E10E11E12E13E14E15E18E19E21E24E25
+        E26E27E30E31E33E34E36  0  0  0  0  0  0  0  0  0  0
++         6  7  7  8  7  7  7  7  6  6  8  7  8  7  7  7  7
++         8  7  7  7  7  7  7  6  6  6  7  7  7  7  8  7  8
++         8  7  8  7  5  6  8  7  7  8  7  8  9  8  8  8  6
++         6  7  6  7  6  6  9  6  8  6  7  6  6  6  6  6  6
++         7  5  5  6  7  7  7  0  0  0  0  0  0  0  0  0  0
%c M  cc GPS ccc cccc cccc cccc cccc ccccc ccccc ccccc ccccc
%c cc cc ccc ccc cccc cccc cccc cccc ccccc ccccc ccccc ccccc
%f  1.2500000  1.025000000  0.00000000000  0.000000000000000
%f  0.0000000  0.000000000  0.00000000000  0.000000000000000
%i    0    0    0    0      0      0      0      0         0
%i    0    0    0    0      0      0      0      0         0
/* Center for Orbit Determination in Europe (CODE)          
/* Ultra-rapid GRE orbits starting year-day 22076 18 hour   
/* Observed/predicted: 24/24 hours (data used up to 077R)   
/* PCV:IGS14      OL/AL:FES2014b NONE     YN ORB:CoN CLK:BRD
*  2022  3 17 18 15  0.00000000
PG01  13732.124123 -22484.453996  -1297.457541    406.631406
PG02 -17975.903402   9068.059860 -16734.970522   -652.356439
PG03  12095.834501 -12984.179144 -19828.904406   -167.799232
PG04   4487.029109 -19267.464594 -17674.580517   -182.949607
PG05 -24626.802345   5680.969382   8253.228598    -75.014939
PG06 -12094.277969  -8212.911721 -22105.988032    234.628994
PG07   1261.278403 -21820.304348  15123.293878    316.481146
PG08  11610.421972 -10023.005352  21622.109333    -60.222717
PG09  -5488.463988 -24199.529055  -9493.309383   -349.232445
PG10  17955.189616  11695.268506  16025.055549   -349.873453
PG11 -19282.068129   6384.384821 -17112.573154    -61.186950
PG12 -15980.994554  10860.575770 -18432.498889   -186.342868
PG13 -15386.920408    824.142512  21500.004728    278.487332
PG14 -16630.470713 -12958.690666  16192.744587    -94.756616
PG15 -10441.566950  12113.964183  20765.749916    -76.051987
PG16  26347.161209    346.462419   4669.589607   -481.745677
PG17 -13644.637821 -22019.804611  -5312.742923    588.469994
PG18  -2345.139810  21833.310244  14862.779933    217.614758
PG19 -16038.498265 -17036.441097 -13009.235443    132.284424
PG20 -26322.702584   1843.029581  -1470.386963    516.257739
PG21  17373.685894 -17036.013999  10470.077336    159.499601
PG22  16847.499836  14499.269146 -14269.651376    229.000236
PG23   6433.331742  14702.091387  21170.704549     -7.613325
PG24 -14487.783705  21668.909118   3475.676956    267.121344
PG25  -1568.155462  15369.106540 -21884.635867    299.622086
PG26  25116.768568   5298.119286  -7506.918271    191.556104
PG27  16876.825955   2596.529122  20246.638704    157.081148
PG28 -22432.325713 -10169.736179  10150.015508    378.377699
PG29   2215.322174  24031.200122 -11077.405977   -492.483334
PG31  14474.789628   5892.035413 -21638.037094   -169.355978
PG32  16642.451212  19043.122265  -8283.334909    -86.685414
PR01 -21481.106162 -13462.115949   2904.917323      7.269828
PR02 -16272.859525   -660.522869  19656.187987    512.774686
PR03  -1888.763900  11908.775335  22533.730333     53.284005
PR04  13331.282854  17520.902725  12922.638783    132.385972
PR05  21191.959836  13684.203024  -3850.095973     89.546693
PR07   1263.861001 -12235.883398 -22296.345141     32.762881
PR08 -13479.987648 -17503.913693 -12667.957205    -64.072023
PR09  23371.523644 -10053.235663  -1186.671130     44.853410
PR12 -18774.503846   -740.050880  17259.870781     17.484400
PR13 -23569.849899   9446.342757   2384.432790    -19.584962
PR14 -14425.713753  14499.636134 -15244.738298     75.483641
PR15   2847.733257  10768.674543 -22933.543754     97.491292
PR17  -6276.279183  23509.327239  -7595.135570    510.319856
PR18   1178.507770  23767.985330   9281.101865    110.596902
PR19   7375.302925  12759.540801  20821.643092   -181.922269
PR20  10907.933065  -9030.212830  21211.690177    -66.888517
PR21   5799.943680 -24065.803988   6194.095383   -286.060248
PR22  -1460.307722 -23306.346856 -10151.034803   -171.206722
PR24 -11065.861166   9995.599141 -20676.546740     84.817999
PE01  22955.382543   9250.701135 -16249.848426   -598.638170
PE02 -23051.757977  -9159.483595  16128.436544    286.871794
PE03 -20725.932765 -19397.486455   8409.443136   -538.372284
PE04  19889.113403   1596.844437 -21856.114324   -986.611077
PE05  -9383.453878 -26134.631134 -10247.285481   -199.479973
PE07  -7267.050621  17572.450661  22690.601065   -649.291175
PE08 -19654.333134  -1212.047567  22107.281294   -496.751873
PE10  18367.929904 -18582.126305  13903.274529   -501.071375
PE11  14776.387659 -25269.857305   4303.798728   4205.428907
PE12  19062.636926  -9131.281569  20713.542937   4708.784914
PE13 -15028.649370  25018.279086  -4976.880988    427.349685
PE14 -22391.323075 -16053.200413 -16835.646967  -1781.573779
PE15 -18969.842052   9088.264432 -20822.902373    757.222091
PE18  15623.107450  14351.634077  10575.470453  -1672.896964
PE19  19853.253262  21067.146044  -6183.655301  -1475.713266
PE21   4474.355831  16246.087136 -24341.732840   -723.090761
PE24  18917.873616 -13859.980120  18060.178036   -510.621979
PE25  -4150.140087 -16287.835972  24363.954134   -567.134110
PE26  -1533.089338  25798.982823  14441.832080   -923.468781
PE27 -17656.962153  14369.607724 -18912.748589   -255.323265
PE30 -29376.588578   3261.519220  -1400.319889   -356.302032
PE31  29228.507186  -4054.005347   2398.977387   -493.675093
PE33  11701.873465  12155.998785  24329.059919   -458.477092
PE34 -11855.040224 -11915.744190 -24367.181834   -507.261599
PE36   2289.746637 -26139.649062 -13677.819738   -346.643853
EOF
